start=new Date('2022-05-07T00:00:00.000Z').valueOf();
sats=[{"REV_AT_EPOCH":"8595","DECAY_DATE":null,"COUNTRY_CODE":"US","PERIAPSIS":"545.808","ARG_OF_PERICENTER":"49.4143","TLE_LINE1":"1 46685U 20073R   22126.85211270 -.00003549  00000-0 -21936-3 0  9997","MEAN_MOTION_DDOT":"0.0000000000000","OBJECT_ID":"2020-073R","MEAN_MOTION_DOT":"-0.00003549","NORAD_CAT_ID":"46685","TIME_SYSTEM":"UTC","APOAPSIS":"548.521","MEAN_ELEMENT_THEORY":"SGP4","LAUNCH_DATE":"2020-10-18","RA_OF_ASC_NODE":"74.2111","BSTAR":"-0.00021936000000","OBJECT_NAME":"STARLINK-1781","CLASSIFICATION_TYPE":"U","RCS_SIZE":"LARGE","INCLINATION":"53.0561","PERIOD":"95.591","EPHEMERIS_TYPE":"0","MEAN_MOTION":"15.06415952","CENTER_NAME":"EARTH","ECCENTRICITY":"0.00019590","GP_ID":"202870432","SEMIMAJOR_AXIS":"6925.300","OBJECT_TYPE":"PAYLOAD","MEAN_ANOMALY":"310.7017","FILE":"3432477","REF_FRAME":"TEME","TLE_LINE2":"2 46685  53.0561  74.2111 0001959  49.4143 310.7017 15.06415952 85950","EPOCH":"2022-05-06T20:27:02.537280","ELEMENT_SET_NO":"999","SITE":"AFETR"},{"MEAN_ANOMALY":"300.9207","OBJECT_TYPE":"PAYLOAD","ECCENTRICITY":"0.00018670","GP_ID":"202860635","SEMIMAJOR_AXIS":"6925.363","MEAN_MOTION":"15.06395145","CENTER_NAME":"EARTH","REF_FRAME":"TEME","TLE_LINE2":"2 46686  53.0558  76.9660 0001867  59.1965 300.9207 15.06395145 85383","EPOCH":"2022-05-06T05:40:39.393120","SITE":"AFETR","ELEMENT_SET_NO":"999","FILE":"3432208","TLE_LINE1":"1 46686U 20073S   22126.23656705 -.00001046  00000-0 -51354-4 0  9994","MEAN_MOTION_DDOT":"0.0000000000000","OBJECT_ID":"2020-073S","MEAN_MOTION_DOT":"-0.00001046","NORAD_CAT_ID":"46686","APOAPSIS":"548.521","TIME_SYSTEM":"UTC","MEAN_ELEMENT_THEORY":"SGP4","PERIAPSIS":"545.935","ARG_OF_PERICENTER":"59.1965","DECAY_DATE":null,"COUNTRY_CODE":"US","REV_AT_EPOCH":"8538","INCLINATION":"53.0558","PERIOD":"95.592","EPHEMERIS_TYPE":"0","OBJECT_NAME":"STARLINK-1783","RCS_SIZE":"LARGE","CLASSIFICATION_TYPE":"U","LAUNCH_DATE":"2020-10-18","RA_OF_ASC_NODE":"76.9660","BSTAR":"-0.00005135400000"},{"EPHEMERIS_TYPE":"0","PERIOD":"95.592","INCLINATION":"53.0576","BSTAR":"0.00003395100000","RA_OF_ASC_NODE":"39.3441","LAUNCH_DATE":"2020-10-18","RCS_SIZE":"LARGE","CLASSIFICATION_TYPE":"U","OBJECT_NAME":"STARLINK-1784","ARG_OF_PERICENTER":"45.5437","PERIAPSIS":"545.712","MEAN_ELEMENT_THEORY":"SGP4","APOAPSIS":"548.655","TIME_SYSTEM":"UTC","MEAN_MOTION_DDOT":"0.0000000000000","MEAN_MOTION_DOT":"0.00000224","OBJECT_ID":"2020-073T","NORAD_CAT_ID":"46687","TLE_LINE1":"1 46687U 20073T   22126.82032497  .00000224  00000-0  33951-4 0  9994","REV_AT_EPOCH":"8644","COUNTRY_CODE":"US","DECAY_DATE":null,"ELEMENT_SET_NO":"999","SITE":"AFETR","EPOCH":"2022-05-06T19:41:16.077408","TLE_LINE2":"2 46687  53.0576  39.3441 0002125  45.5437 314.5725 15.06409860 86449","REF_FRAME":"TEME","FILE":"3432485","OBJECT_TYPE":"PAYLOAD","MEAN_ANOMALY":"314.5725","CENTER_NAME":"EARTH","MEAN_MOTION":"15.06409860","SEMIMAJOR_AXIS":"6925.318","GP_ID":"202870561","ECCENTRICITY":"0.00021250"},{"DECAY_DATE":null,"COUNTRY_CODE":"US","REV_AT_EPOCH":"8665","TLE_LINE1":"1 46689U 20073V   22126.38031472  .00000141  00000-0  28349-4 0  9992","MEAN_MOTION_DDOT":"0.0000000000000","MEAN_MOTION_DOT":"0.00000141","NORAD_CAT_ID":"46689","OBJECT_ID":"2020-073V","TIME_SYSTEM":"UTC","APOAPSIS":"548.434","MEAN_ELEMENT_THEORY":"SGP4","PERIAPSIS":"545.977","ARG_OF_PERICENTER":"54.5796","OBJECT_NAME":"STARLINK-1788","CLASSIFICATION_TYPE":"U","RCS_SIZE":"LARGE","LAUNCH_DATE":"2020-10-18","RA_OF_ASC_NODE":"76.3248","BSTAR":"0.00002834900000","INCLINATION":"53.0535","PERIOD":"95.592","EPHEMERIS_TYPE":"0","ECCENTRICITY":"0.00017740","GP_ID":"202861136","SEMIMAJOR_AXIS":"6925.341","MEAN_MOTION":"15.06402504","CENTER_NAME":"EARTH","MEAN_ANOMALY":"305.5358","OBJECT_TYPE":"PAYLOAD","FILE":"3432208","REF_FRAME":"TEME","TLE_LINE2":"2 46689  53.0535  76.3248 0001774  54.5796 305.5358 15.06402504 86652","EPOCH":"2022-05-06T09:07:39.191808","SITE":"AFETR","ELEMENT_SET_NO":"999"},{"BSTAR":"0.00010044000000","RA_OF_ASC_NODE":"50.7144","LAUNCH_DATE":"2020-10-18","RCS_SIZE":"LARGE","CLASSIFICATION_TYPE":"U","OBJECT_NAME":"STARLINK-1789","EPHEMERIS_TYPE":"0","PERIOD":"95.592","INCLINATION":"53.0565","REV_AT_EPOCH":"8577","COUNTRY_CODE":"US","DECAY_DATE":null,"ARG_OF_PERICENTER":"74.8456","PERIAPSIS":"546.201","MEAN_ELEMENT_THEORY":"SGP4","APOAPSIS":"548.210","TIME_SYSTEM":"UTC","MEAN_MOTION_DOT":"0.00001215","MEAN_MOTION_DDOT":"0.0000000000000","NORAD_CAT_ID":"46690","OBJECT_ID":"2020-073W","TLE_LINE1":"1 46690U 20073W   22126.51346840  .00001215  00000-0  10044-3 0  9992","FILE":"3432208","SITE":"AFETR","ELEMENT_SET_NO":"999","TLE_LINE2":"2 46690  53.0565  50.7144 0001451  74.8456 285.2694 15.06402614 85779","EPOCH":"2022-05-06T12:19:23.669760","REF_FRAME":"TEME","CENTER_NAME":"EARTH","MEAN_MOTION":"15.06402614","SEMIMAJOR_AXIS":"6925.341","GP_ID":"202860110","ECCENTRICITY":"0.00014510","OBJECT_TYPE":"PAYLOAD","MEAN_ANOMALY":"285.2694"},{"SITE":"AFETR","ELEMENT_SET_NO":"999","TLE_LINE2":"2 46691  53.0553  60.7322 0001992  55.2115 304.9061 15.06396119 85635","EPOCH":"2022-05-06T12:18:04.851360","REF_FRAME":"TEME","FILE":"3432208","OBJECT_TYPE":"PAYLOAD","MEAN_ANOMALY":"304.9061","CENTER_NAME":"EARTH","MEAN_MOTION":"15.06396119","SEMIMAJOR_AXIS":"6925.360","GP_ID":"202860136","ECCENTRICITY":"0.00019920","EPHEMERIS_TYPE":"0","PERIOD":"95.592","INCLINATION":"53.0553","BSTAR":"0.00005173400000","RA_OF_ASC_NODE":"60.7322","LAUNCH_DATE":"2020-10-18","CLASSIFICATION_TYPE":"U","RCS_SIZE":"LARGE","OBJECT_NAME":"STARLINK-1790","ARG_OF_PERICENTER":"55.2115","PERIAPSIS":"545.846","MEAN_ELEMENT_THEORY":"SGP4","TIME_SYSTEM":"UTC","APOAPSIS":"548.605","MEAN_MOTION_DOT":"0.00000489","MEAN_MOTION_DDOT":"0.0000000000000","NORAD_CAT_ID":"46691","OBJECT_ID":"2020-073X","TLE_LINE1":"1 46691U 20073X   22126.51255615  .00000489  00000-0  51734-4 0  9996","REV_AT_EPOCH":"8563","COUNTRY_CODE":"US","DECAY_DATE":null},{"FILE":"3432494","SITE":"AFETR","ELEMENT_SET_NO":"999","EPOCH":"2022-05-06T19:55:12.869184","TLE_LINE2":"2 46692  53.0555  74.2900 0001774  60.4192 299.6974 15.06392531 85953","REF_FRAME":"TEME","CENTER_NAME":"EARTH","MEAN_MOTION":"15.06392531","SEMIMAJOR_AXIS":"6925.371","GP_ID":"202871139","ECCENTRICITY":"0.00017740","OBJECT_TYPE":"PAYLOAD","MEAN_ANOMALY":"299.6974","BSTAR":"0.00000781530000","RA_OF_ASC_NODE":"74.2900","LAUNCH_DATE":"2020-10-18","RCS_SIZE":"LARGE","CLASSIFICATION_TYPE":"U","OBJECT_NAME":"STARLINK-1791","EPHEMERIS_TYPE":"0","PERIOD":"95.593","INCLINATION":"53.0555","REV_AT_EPOCH":"8595","COUNTRY_CODE":"US","DECAY_DATE":null,"ARG_OF_PERICENTER":"60.4192","PERIAPSIS":"546.008","MEAN_ELEMENT_THEORY":"SGP4","TIME_SYSTEM":"UTC","APOAPSIS":"548.465","MEAN_MOTION_DDOT":"0.0000000000000","NORAD_CAT_ID":"46692","MEAN_MOTION_DOT":"-0.00000165","OBJECT_ID":"2020-073Y","TLE_LINE1":"1 46692U 20073Y   22126.83001006 -.00000165  00000-0  78153-5 0  9992"},{"FILE":"3432617","TLE_LINE2":"2 46693  53.0556  59.2236 0001982  42.8861 317.2282 15.06406511 86154","EPOCH":"2022-05-06T20:21:04.210560","SITE":"AFETR","ELEMENT_SET_NO":"999","REF_FRAME":"TEME","SEMIMAJOR_AXIS":"6925.329","ECCENTRICITY":"0.00019820","GP_ID":"202874093","MEAN_MOTION":"15.06406511","CENTER_NAME":"EARTH","MEAN_ANOMALY":"317.2282","OBJECT_TYPE":"PAYLOAD","RCS_SIZE":"LARGE","CLASSIFICATION_TYPE":"U","OBJECT_NAME":"STARLINK-1792","BSTAR":"0.00009566400000","LAUNCH_DATE":"2020-10-18","RA_OF_ASC_NODE":"59.2236","PERIOD":"95.592","EPHEMERIS_TYPE":"0","INCLINATION":"53.0556","DECAY_DATE":null,"COUNTRY_CODE":"US","REV_AT_EPOCH":"8615","TIME_SYSTEM":"UTC","APOAPSIS":"548.566","MEAN_ELEMENT_THEORY":"SGP4","TLE_LINE1":"1 46693U 20073Z   22126.84796540  .00001144  00000-0  95664-4 0  9990","MEAN_MOTION_DDOT":"0.0000000000000","OBJECT_ID":"2020-073Z","MEAN_MOTION_DOT":"0.00001144","NORAD_CAT_ID":"46693","ARG_OF_PERICENTER":"42.8861","PERIAPSIS":"545.821"},{"MEAN_ELEMENT_THEORY":"SGP4","APOAPSIS":"548.187","TIME_SYSTEM":"UTC","MEAN_MOTION_DOT":"0.00000192","MEAN_MOTION_DDOT":"0.0000000000000","NORAD_CAT_ID":"46694","OBJECT_ID":"2020-073AA","TLE_LINE1":"1 46694U 20073AA  22126.80558652  .00000192  00000-0  31814-4 0  9996","ARG_OF_PERICENTER":"113.4586","PERIAPSIS":"546.241","COUNTRY_CODE":"US","DECAY_DATE":null,"REV_AT_EPOCH":"8644","EPHEMERIS_TYPE":"0","PERIOD":"95.592","INCLINATION":"53.0564","CLASSIFICATION_TYPE":"U","RCS_SIZE":"LARGE","OBJECT_NAME":"STARLINK-1793","BSTAR":"0.00003181400000","RA_OF_ASC_NODE":"39.4214","LAUNCH_DATE":"2020-10-18","MEAN_ANOMALY":"246.6551","OBJECT_TYPE":"PAYLOAD","SEMIMAJOR_AXIS":"6925.349","GP_ID":"202870660","ECCENTRICITY":"0.00014050","CENTER_NAME":"EARTH","MEAN_MOTION":"15.06399996","ELEMENT_SET_NO":"999","SITE":"AFETR","EPOCH":"2022-05-06T19:20:02.675328","TLE_LINE2":"2 46694  53.0564  39.4214 0001405 113.4586 246.6551 15.06399996 86443","REF_FRAME":"TEME","FILE":"3432496"},{"MEAN_ANOMALY":"308.3872","OBJECT_TYPE":"PAYLOAD","GP_ID":"202860636","ECCENTRICITY":"0.00019390","SEMIMAJOR_AXIS":"6925.369","CENTER_NAME":"EARTH","MEAN_MOTION":"15.06393307","REF_FRAME":"TEME","ELEMENT_SET_NO":"999","SITE":"AFETR","TLE_LINE2":"2 46696  53.0568  40.8162 0001939  51.7292 308.3872 15.06393307 85910","EPOCH":"2022-05-06T11:48:52.940160","FILE":"3432208","OBJECT_ID":"2020-073AC","MEAN_MOTION_DDOT":"0.0000000000000","MEAN_MOTION_DOT":"-0.00001531","NORAD_CAT_ID":"46696","TLE_LINE1":"1 46696U 20073AC  22126.49227940 -.00001531  00000-0 -83888-4 0  9994","MEAN_ELEMENT_THEORY":"SGP4","TIME_SYSTEM":"UTC","APOAPSIS":"548.577","PERIAPSIS":"545.891","ARG_OF_PERICENTER":"51.7292","COUNTRY_CODE":"US","DECAY_DATE":null,"REV_AT_EPOCH":"8591","INCLINATION":"53.0568","EPHEMERIS_TYPE":"0","PERIOD":"95.593","OBJECT_NAME":"STARLINK-1795","RCS_SIZE":"LARGE","CLASSIFICATION_TYPE":"U","RA_OF_ASC_NODE":"40.8162","LAUNCH_DATE":"2020-10-18","BSTAR":"-0.00008388800000"}];
